{
"type": "FeatureCollection",
"name": "contour2",
"crs": { "type": "name", "properties": { "name": "urn:ogc:def:crs:EPSG::5489" } },
"features": [
{ "type": "Feature", "properties": { "id": "relation/298961", "@id": "relation/298961", "addr:postcode": null, "admin_level": "8", "boundary": "administrative", "name": "Saint-Joseph", "name:gcf": "Sen Jozef", "place": null, "@relations": null, "population": "15883", "population:date": "2019", "postal_code": "97212", "ref:FR:SIREN": "219722246", "ref:INSEE": "97224", "source": "cadastre-dgi-fr source : Direction Générale des Impôts - Cadastre ; mise à jour : 2008", "source:population": "INSEE 2022", "source:postal_code": "La Poste - 12/2014", "type": "boundary", "wikidata": "Q918737", "wikipedia": "fr:Saint-Joseph (Martinique)" }, "geometry": { "type": "Polygon", "coordinates": [ [ [ -61.0586357, 14.6506867 ], [ -61.0583934, 14.6509198 ], [ -61.05829, 14.6508965 ], [ -61.0581916, 14.6507904 ], [ -61.0580792, 14.6507081 ], [ -61.0578604, 14.6505796 ], [ -61.0577371, 14.6504795 ], [ -61.0576584, 14.6505823 ], [ -61.0576058, 14.6506153 ], [ -61.0575457, 14.6506396 ], [ -61.0575149, 14.6505723 ], [ -61.0574943, 14.6505357 ], [ -61.0574419, 14.6505353 ], [ -61.0572214, 14.6505975 ], [ -61.0571813, 14.6505666 ], [ -61.0571883, 14.6504574 ], [ -61.0571482, 14.6504251 ], [ -61.0568699, 14.6504285 ], [ -61.0567062, 14.6503761 ], [ -61.0565676, 14.6503707 ], [ -61.0563977, 14.6504079 ], [ -61.056153, 14.6504508 ], [ -61.0560338, 14.6504948 ], [ -61.0559061, 14.6504937 ], [ -61.0558645, 14.6504677 ], [ -61.0553707, 14.6502985 ], [ -61.0553579, 14.650247 ], [ -61.0553499, 14.6501655 ], [ -61.0552554, 14.6501475 ], [ -61.0551232, 14.6501528 ], [ -61.0548866, 14.6500244 ], [ -61.0547487, 14.6499461 ], [ -61.054529, 14.6498971 ], [ -61.0544084, 14.6498425 ], [ -61.0542696, 14.6498478 ], [ -61.0540101, 14.6498242 ], [ -61.0537524, 14.649837 ], [ -61.0535026, 14.6497106 ], [ -61.0535229, 14.6496572 ], [ -61.0534133, 14.6493562 ], [ -61.0530928, 14.6492571 ], [ -61.0527721, 14.6491751 ], [ -61.052711, 14.6491232 ], [ -61.0526122, 14.6488394 ], [ -61.0525171, 14.6486393 ], [ -61.0523563, 14.6484108 ], [ -61.0523399, 14.6482757 ], [ -61.0522008, 14.648073 ], [ -61.0521523, 14.647837 ], [ -61.0521311, 14.6477338 ], [ -61.052112, 14.6476522 ], [ -61.052148, 14.6475732 ], [ -61.0523004, 14.6475081 ], [ -61.0524373, 14.6474664 ], [ -61.0525391, 14.6474008 ], [ -61.0525925, 14.6473348 ], [ -61.0525913, 14.6472233 ], [ -61.0525369, 14.6471522 ], [ -61.0524141, 14.647104 ], [ -61.0522627, 14.6470427 ], [ -61.0521513, 14.6469518 ], [ -61.0520554, 14.6468374 ], [ -61.0519635, 14.6467766 ], [ -61.0517064, 14.646723 ], [ -61.051485, 14.6466268 ], [ -61.0511983, 14.6464358 ], [ -61.0510872, 14.6463084 ], [ -61.0510509, 14.6461838 ], [ -61.0510275, 14.6460872 ], [ -61.050962, 14.6460309 ], [ -61.0508083, 14.6459825 ], [ -61.050474, 14.6459497 ], [ -61.050265, 14.6459351 ], [ -61.0501786, 14.6459986 ], [ -61.0500968, 14.6460365 ], [ -61.0500551, 14.6460212 ], [ -61.0500007, 14.6459564 ], [ -61.0498471, 14.6458994 ], [ -61.0496752, 14.6459172 ], [ -61.049479, 14.6459563 ], [ -61.0493073, 14.645957 ], [ -61.0491067, 14.6464782 ], [ -61.044197, 14.6471254 ], [ -61.0442767, 14.6468807 ], [ -61.044288, 14.6466824 ], [ -61.0442714, 14.6463109 ], [ -61.0442432, 14.6460189 ], [ -61.0442352, 14.6459432 ], [ -61.0441861, 14.6454256 ], [ -61.0441176, 14.644798 ], [ -61.0437271, 14.6449964 ], [ -61.0437195, 14.6449294 ], [ -61.043486, 14.6448845 ], [ -61.0435066, 14.6447374 ], [ -61.0434998, 14.6447218 ], [ -61.0434813, 14.6447072 ], [ -61.0433586, 14.6446773 ], [ -61.0432512, 14.6446043 ], [ -61.0431769, 14.6445531 ], [ -61.0431314, 14.6445386 ], [ -61.0430623, 14.6445405 ], [ -61.0430081, 14.6445608 ], [ -61.0429514, 14.6446003 ], [ -61.0428627, 14.6447009 ], [ -61.0428205, 14.6448271 ], [ -61.0428027, 14.6448514 ], [ -61.0427606, 14.644886 ], [ -61.0427088, 14.644917 ], [ -61.0426368, 14.6449365 ], [ -61.0426007, 14.644936 ], [ -61.042541, 14.6449329 ], [ -61.0424292, 14.6448987 ], [ -61.0423791, 14.6448804 ], [ -61.0423169, 14.6448479 ], [ -61.0423164, 14.6447661 ], [ -61.0424992, 14.644631 ], [ -61.0426961, 14.6444586 ], [ -61.0428741, 14.6442431 ], [ -61.0428967, 14.6441763 ], [ -61.0427553, 14.6439956 ], [ -61.0428692, 14.643868 ], [ -61.0429094, 14.6436781 ], [ -61.0428463, 14.6433481 ], [ -61.0427699, 14.6432831 ], [ -61.0425311, 14.6432168 ], [ -61.042186, 14.6430344 ], [ -61.0421172, 14.6430338 ], [ -61.0420095, 14.6430838 ], [ -61.0416481, 14.6433357 ], [ -61.0415679, 14.6433265 ], [ -61.0415078, 14.6432554 ], [ -61.0415205, 14.6431711 ], [ -61.041687, 14.6429823 ], [ -61.0417135, 14.6429474 ], [ -61.0417031, 14.6428496 ], [ -61.0416547, 14.6427594 ], [ -61.041397, 14.6426289 ], [ -61.0412569, 14.6425953 ], [ -61.0411441, 14.6425156 ], [ -61.0410785, 14.6424686 ], [ -61.0410105, 14.642486 ], [ -61.0408244, 14.6426376 ], [ -61.0407512, 14.6426356 ], [ -61.0406352, 14.6425396 ], [ -61.0405635, 14.6424935 ], [ -61.0404994, 14.6424955 ], [ -61.0404406, 14.6425521 ], [ -61.0403814, 14.6426987 ], [ -61.0403121, 14.6427068 ], [ -61.0402479, 14.6426739 ], [ -61.0402117, 14.6425864 ], [ -61.0402944, 14.6424753 ], [ -61.0403428, 14.642384 ], [ -61.040334, 14.642256 ], [ -61.0402441, 14.6421285 ], [ -61.0401322, 14.6421037 ], [ -61.0400354, 14.6421169 ], [ -61.0398959, 14.642206 ], [ -61.0397346, 14.6424002 ], [ -61.0395254, 14.6424065 ], [ -61.0393902, 14.6424482 ], [ -61.0393896, 14.6425206 ], [ -61.0395559, 14.6426934 ], [ -61.0395362, 14.6427361 ], [ -61.0394256, 14.642738 ], [ -61.0395932, 14.6439886 ], [ -61.039589, 14.6447894 ], [ -61.0395778, 14.6448817 ], [ -61.039858, 14.6457412 ], [ -61.0380988, 14.6456895 ], [ -61.0369135, 14.6455385 ], [ -61.0365141, 14.6455384 ], [ -61.036209, 14.6455974 ], [ -61.0361574, 14.6461592 ], [ -61.0359905, 14.6462129 ], [ -61.035606, 14.6462149 ], [ -61.035138, 14.6462608 ], [ -61.0345898, 14.6463274 ], [ -61.034225, 14.6463632 ], [ -61.0340903, 14.6470977 ], [ -61.032751, 14.6472403 ], [ -61.0326504, 14.6469477 ], [ -61.032048, 14.6471273 ], [ -61.0318381, 14.647158 ], [ -61.0313195, 14.6472621 ], [ -61.0308247, 14.6473663 ], [ -61.0310796, 14.6486718 ], [ -61.0285625, 14.6487225 ], [ -61.0285637, 14.6485807 ], [ -61.028535, 14.6485339 ], [ -61.0284544, 14.6484806 ], [ -61.0283902, 14.6484436 ], [ -61.0282724, 14.6483595 ], [ -61.028252, 14.6483168 ], [ -61.0282178, 14.6481869 ], [ -61.028174, 14.6479678 ], [ -61.0282293, 14.6478305 ], [ -61.0283804, 14.647686 ], [ -61.0285648, 14.6475377 ], [ -61.0285226, 14.6473652 ], [ -61.0284645, 14.6473545 ], [ -61.0283496, 14.6474001 ], [ -61.028256, 14.6474054 ], [ -61.0281482, 14.647364 ], [ -61.028047, 14.647276 ], [ -61.0246115, 14.6497109 ], [ -61.0245602, 14.6496379 ], [ -61.0245111, 14.649478 ], [ -61.0244532, 14.6492533 ], [ -61.024399, 14.6490313 ], [ -61.0235908, 14.6496664 ], [ -61.0231636, 14.6500319 ], [ -61.0226579, 14.6503657 ], [ -61.0227878, 14.6508397 ], [ -61.0216985, 14.6511622 ], [ -61.0213921, 14.6504067 ], [ -61.0213861, 14.6503631 ], [ -61.0212429, 14.6504169 ], [ -61.0210721, 14.6504621 ], [ -61.021021, 14.6504564 ], [ -61.0207737, 14.6503672 ], [ -61.0206674, 14.6503414 ], [ -61.0206013, 14.650344 ], [ -61.0205275, 14.6503765 ], [ -61.0202175, 14.6507379 ], [ -61.0199493, 14.6510653 ], [ -61.0198593, 14.6511341 ], [ -61.0196999, 14.6512053 ], [ -61.0196444, 14.6512173 ], [ -61.019587, 14.6512085 ], [ -61.0195522, 14.6511719 ], [ -61.0195039, 14.6510906 ], [ -61.019439, 14.6509666 ], [ -61.0193839, 14.6509278 ], [ -61.0193424, 14.6509233 ], [ -61.0193072, 14.6511667 ], [ -61.0193234, 14.6512653 ], [ -61.0193676, 14.6513259 ], [ -61.019445, 14.6513607 ], [ -61.0195438, 14.6513854 ], [ -61.0196235, 14.6514151 ], [ -61.0196986, 14.6514666 ], [ -61.0197247, 14.6515228 ], [ -61.0197253, 14.6515778 ], [ -61.0197064, 14.6517217 ], [ -61.0196852, 14.651764 ], [ -61.0183807, 14.652239 ], [ -61.0182586, 14.6519382 ], [ -61.0169089, 14.6525727 ], [ -61.0169411, 14.6495146 ], [ -61.01687, 14.6492729 ], [ -61.0168079, 14.6492205 ], [ -61.0166888, 14.6491443 ], [ -61.0165562, 14.6490861 ], [ -61.0164674, 14.6490374 ], [ -61.0163868, 14.6489667 ], [ -61.0161303, 14.6490682 ], [ -61.0160499, 14.6491194 ], [ -61.0159868, 14.6491811 ], [ -61.0159529, 14.6492495 ], [ -61.0158999, 14.649367 ], [ -61.0158412, 14.6496776 ], [ -61.0158173, 14.6498226 ], [ -61.0160609, 14.6501202 ], [ -61.0157701, 14.6503251 ], [ -61.0157311, 14.6503675 ], [ -61.0157225, 14.6504336 ], [ -61.0157469, 14.6506801 ], [ -61.0157935, 14.650836 ], [ -61.0156871, 14.6511151 ], [ -61.0154206, 14.6514369 ], [ -61.0153723, 14.6514792 ], [ -61.0153878, 14.6515273 ], [ -61.015386, 14.6515792 ], [ -61.0153383, 14.6516967 ], [ -61.0153123, 14.6517743 ], [ -61.0152494, 14.6518113 ], [ -61.0152292, 14.6518384 ], [ -61.0152525, 14.651915 ], [ -61.0152156, 14.6523101 ], [ -61.0151887, 14.6523397 ], [ -61.0151393, 14.6523626 ], [ -61.0150735, 14.6524152 ], [ -61.014956, 14.6524543 ], [ -61.014926, 14.652537 ], [ -61.0150977, 14.6526928 ], [ -61.0151534, 14.6527179 ], [ -61.0151894, 14.652713 ], [ -61.0152199, 14.6527197 ], [ -61.0151839, 14.6528698 ], [ -61.0151341, 14.6529381 ], [ -61.015063, 14.6529984 ], [ -61.0149555, 14.6530973 ], [ -61.0149457, 14.6530077 ], [ -61.0149206, 14.6529829 ], [ -61.0148714, 14.6529773 ], [ -61.0148193, 14.6529937 ], [ -61.0147645, 14.6530204 ], [ -61.0147283, 14.6530551 ], [ -61.0146999, 14.6530977 ], [ -61.014678, 14.6531636 ], [ -61.0147063, 14.653274 ], [ -61.0147072, 14.6533233 ], [ -61.0146974, 14.6533776 ], [ -61.0146197, 14.6534327 ], [ -61.0145196, 14.6534604 ], [ -61.0144469, 14.6533975 ], [ -61.0143445, 14.6533876 ], [ -61.0141172, 14.6533454 ], [ -61.0140811, 14.6533594 ], [ -61.0140754, 14.6533956 ], [ -61.0140538, 14.6534382 ], [ -61.0140269, 14.6534626 ], [ -61.0139668, 14.6534842 ], [ -61.013892, 14.6535068 ], [ -61.0137246, 14.6536182 ], [ -61.0136066, 14.6535666 ], [ -61.0134637, 14.6536082 ], [ -61.0132649, 14.6536583 ], [ -61.0132274, 14.6536852 ], [ -61.0131951, 14.6537186 ], [ -61.0131384, 14.6538076 ], [ -61.0130611, 14.6538199 ], [ -61.0129298, 14.6537553 ], [ -61.0128214, 14.6538165 ], [ -61.0125836, 14.6539117 ], [ -61.0123726, 14.6539199 ], [ -61.0122728, 14.6539739 ], [ -61.0122256, 14.6540383 ], [ -61.0122261, 14.6541342 ], [ -61.012031, 14.654362 ], [ -61.011997, 14.6544356 ], [ -61.0119765, 14.6547906 ], [ -61.0119372, 14.6548641 ], [ -61.0118524, 14.6549658 ], [ -61.0117691, 14.655048 ], [ -61.0117734, 14.6551582 ], [ -61.0117412, 14.6551878 ], [ -61.0116799, 14.6552015 ], [ -61.0116107, 14.655188 ], [ -61.0115705, 14.6550168 ], [ -61.0114086, 14.6550493 ], [ -61.0111625, 14.6551413 ], [ -61.0109143, 14.6553052 ], [ -61.0108787, 14.6553559 ], [ -61.0108201, 14.6554613 ], [ -61.0106748, 14.6556219 ], [ -61.0105532, 14.6558153 ], [ -61.0104592, 14.655904 ], [ -61.0103269, 14.6559765 ], [ -61.009679, 14.6563132 ], [ -61.0096192, 14.6562115 ], [ -61.0096073, 14.656183 ], [ -61.0066256, 14.6575805 ], [ -61.0066634, 14.6576742 ], [ -61.0059924, 14.6579627 ], [ -61.0056601, 14.6578989 ], [ -61.0055827, 14.6579215 ], [ -61.0054827, 14.6579311 ], [ -61.0054132, 14.6579616 ], [ -61.0053494, 14.6579494 ], [ -61.0052899, 14.6579022 ], [ -61.0052639, 14.657841 ], [ -61.0052633, 14.6577594 ], [ -61.0052454, 14.6576749 ], [ -61.0052033, 14.6576188 ], [ -61.005153, 14.6575912 ], [ -61.0050824, 14.6575932 ], [ -61.0035222, 14.6544042 ], [ -60.9998674, 14.6561036 ], [ -60.9959247, 14.6579367 ], [ -60.9958685, 14.658396 ], [ -60.9957991, 14.6587032 ], [ -60.9956413, 14.6590928 ], [ -60.9955664, 14.659361 ], [ -60.9955006, 14.6594807 ], [ -60.9954654, 14.6596023 ], [ -60.9954627, 14.6597077 ], [ -60.9955243, 14.6597729 ], [ -60.9955586, 14.6598404 ], [ -60.9955935, 14.6600348 ], [ -60.995417, 14.6602382 ], [ -60.9952275, 14.6603685 ], [ -60.9949457, 14.6605236 ], [ -60.9947954, 14.6605597 ], [ -60.9946266, 14.6607482 ], [ -60.9946953, 14.6609728 ], [ -60.9948124, 14.6611198 ], [ -60.9952115, 14.6613696 ], [ -60.9953784, 14.6614394 ], [ -60.9962435, 14.662033 ], [ -60.9964247, 14.6622503 ], [ -60.9964736, 14.6624092 ], [ -60.9964653, 14.6625667 ], [ -60.9964231, 14.6627057 ], [ -60.9962708, 14.6628728 ], [ -60.9960837, 14.6630197 ], [ -60.9959162, 14.6630722 ], [ -60.9954369, 14.6631161 ], [ -60.9949357, 14.6633151 ], [ -60.9947443, 14.6634718 ], [ -60.9946852, 14.6635883 ], [ -60.9946765, 14.663711 ], [ -60.9948562, 14.6639042 ], [ -60.9950154, 14.6639773 ], [ -60.9952828, 14.663999 ], [ -60.9954474, 14.6640588 ], [ -60.9955168, 14.664189 ], [ -60.9956022, 14.6643116 ], [ -60.9958325, 14.6644679 ], [ -60.9961314, 14.6646882 ], [ -60.9962621, 14.6648047 ], [ -60.9964205, 14.6650977 ], [ -60.9965118, 14.6654563 ], [ -60.9965383, 14.6657624 ], [ -60.996503, 14.6661263 ], [ -60.9964808, 14.6662298 ], [ -60.9964482, 14.6663035 ], [ -60.9962167, 14.6667111 ], [ -60.9961159, 14.666823 ], [ -60.9959823, 14.6668646 ], [ -60.9958699, 14.666931 ], [ -60.995649, 14.6670652 ], [ -60.9955687, 14.6671361 ], [ -60.9954893, 14.6672798 ], [ -60.9955553, 14.6674626 ], [ -60.995655, 14.6676458 ], [ -60.9957076, 14.6678665 ], [ -60.9957437, 14.6681858 ], [ -60.9957276, 14.668816 ], [ -60.9957456, 14.6691225 ], [ -60.9957808, 14.6692545 ], [ -60.9958784, 14.6693819 ], [ -60.9959947, 14.669469 ], [ -60.9962142, 14.6696304 ], [ -60.9966964, 14.6700801 ], [ -60.9970236, 14.6704197 ], [ -60.9971219, 14.6704813 ], [ -60.9973256, 14.6706729 ], [ -60.9974285, 14.6707953 ], [ -60.9974485, 14.6708867 ], [ -60.9973761, 14.6711265 ], [ -60.9972675, 14.6713332 ], [ -60.9971098, 14.6715192 ], [ -60.9968734, 14.6717754 ], [ -60.9966712, 14.6719863 ], [ -60.9965249, 14.6720584 ], [ -60.9962929, 14.6721273 ], [ -60.9957687, 14.6722873 ], [ -60.995437, 14.6723624 ], [ -60.9950088, 14.6725288 ], [ -60.9946618, 14.6727038 ], [ -60.994494, 14.6728329 ], [ -60.9943833, 14.6729466 ], [ -60.9943106, 14.6730948 ], [ -60.9944052, 14.6731886 ], [ -60.9945215, 14.6733928 ], [ -60.9945849, 14.6736111 ], [ -60.9946234, 14.673795 ], [ -60.994624, 14.6740055 ], [ -60.9945597, 14.6741689 ], [ -60.9944704, 14.6743052 ], [ -60.9943958, 14.674493 ], [ -60.9944249, 14.6746083 ], [ -60.9945017, 14.6747386 ], [ -60.9946215, 14.6748302 ], [ -60.9947316, 14.6748924 ], [ -60.9948168, 14.67492 ], [ -60.9949722, 14.6749654 ], [ -60.995252, 14.6751612 ], [ -60.9953667, 14.675265 ], [ -60.9954619, 14.6753074 ], [ -60.9956103, 14.675294 ], [ -60.9957366, 14.675229 ], [ -60.9958205, 14.6751221 ], [ -60.9958896, 14.6749954 ], [ -60.9959581, 14.674925 ], [ -60.9960413, 14.6749013 ], [ -60.9962061, 14.6750251 ], [ -60.9962952, 14.6751702 ], [ -60.9963218, 14.6752953 ], [ -60.9963198, 14.6755155 ], [ -60.9962887, 14.6756107 ], [ -60.9961291, 14.6757439 ], [ -60.9959421, 14.6758549 ], [ -60.9958758, 14.6759522 ], [ -60.9958469, 14.6760914 ], [ -60.9958661, 14.6761919 ], [ -60.9959834, 14.6762884 ], [ -60.9969641, 14.6765343 ], [ -60.9980378, 14.6767908 ], [ -60.9983332, 14.6769206 ], [ -60.9984779, 14.6770442 ], [ -60.9985473, 14.6771549 ], [ -60.9985517, 14.6775049 ], [ -60.9985977, 14.6776987 ], [ -60.9987468, 14.6778835 ], [ -60.9988917, 14.6779876 ], [ -60.999105, 14.678031 ], [ -60.9993266, 14.6779864 ], [ -60.9997672, 14.6779168 ], [ -61.0001017, 14.6779026 ], [ -61.0002874, 14.677936 ], [ -61.000448, 14.677979 ], [ -61.0006834, 14.678074 ], [ -61.0008081, 14.6781828 ], [ -61.0008477, 14.6782516 ], [ -61.0008839, 14.6784184 ], [ -61.0008669, 14.6786287 ], [ -61.0008157, 14.67901 ], [ -61.0008771, 14.6791696 ], [ -61.0009557, 14.6793661 ], [ -61.0010625, 14.6795139 ], [ -61.001514, 14.6796255 ], [ -61.0016647, 14.6796366 ], [ -61.0017654, 14.6796203 ], [ -61.001884, 14.6795773 ], [ -61.0019197, 14.6795237 ], [ -61.0019206, 14.6794234 ], [ -61.0018739, 14.679308 ], [ -61.0017649, 14.6791284 ], [ -61.0014319, 14.6786972 ], [ -61.0013466, 14.6784101 ], [ -61.001359, 14.6781533 ], [ -61.0014614, 14.6779437 ], [ -61.0015299, 14.6778782 ], [ -61.0020245, 14.6779559 ], [ -61.0021676, 14.6779791 ], [ -61.0022558, 14.6779579 ], [ -61.0023823, 14.677866 ], [ -61.0024233, 14.6777807 ], [ -61.0027041, 14.6773108 ], [ -61.0028298, 14.6770353 ], [ -61.0029847, 14.6768726 ], [ -61.0030778, 14.6768539 ], [ -61.0031456, 14.6768642 ], [ -61.0032432, 14.6769165 ], [ -61.0033629, 14.6770228 ], [ -61.0035471, 14.6772299 ], [ -61.0039154, 14.6776443 ], [ -61.0040514, 14.6778951 ], [ -61.0041153, 14.6780547 ], [ -61.0041362, 14.6782458 ], [ -61.0041094, 14.6784291 ], [ -61.0039635, 14.6787117 ], [ -61.0039197, 14.6788239 ], [ -61.0039058, 14.6789731 ], [ -61.0039348, 14.6791006 ], [ -61.0040368, 14.6792214 ], [ -61.0041992, 14.6793305 ], [ -61.0043168, 14.6793951 ], [ -61.0047753, 14.679563 ], [ -61.0049611, 14.679594 ], [ -61.0051296, 14.6795857 ], [ -61.0052531, 14.6795549 ], [ -61.0053946, 14.6794705 ], [ -61.0055214, 14.6793566 ], [ -61.0056653, 14.6792844 ], [ -61.0058062, 14.6792783 ], [ -61.0060732, 14.6792145 ], [ -61.006146, 14.6792322 ], [ -61.0062178, 14.6793479 ], [ -61.0062546, 14.6794485 ], [ -61.0063815, 14.679873 ], [ -61.0065358, 14.6803296 ], [ -61.0066819, 14.6805707 ], [ -61.0067715, 14.6806742 ], [ -61.0068643, 14.6806921 ], [ -61.0070227, 14.6806911 ], [ -61.0070957, 14.6806844 ], [ -61.0071766, 14.6806312 ], [ -61.0072579, 14.6805438 ], [ -61.0074056, 14.680337 ], [ -61.0076396, 14.680038 ], [ -61.0078779, 14.6798149 ], [ -61.0081249, 14.679751 ], [ -61.0084919, 14.6797566 ], [ -61.0089416, 14.6797947 ], [ -61.0093756, 14.6798915 ], [ -61.0095859, 14.679996 ], [ -61.0099371, 14.6803515 ], [ -61.010026, 14.6805309 ], [ -61.0100501, 14.6806437 ], [ -61.0100585, 14.6808273 ], [ -61.0099998, 14.6809272 ], [ -61.009934, 14.680978 ], [ -61.0098331, 14.6810138 ], [ -61.0094985, 14.6810305 ], [ -61.0089249, 14.6808053 ], [ -61.0087891, 14.6808017 ], [ -61.0086829, 14.6808767 ], [ -61.0086261, 14.6810328 ], [ -61.0086858, 14.6813784 ], [ -61.0087134, 14.681665 ], [ -61.0087622, 14.6818269 ], [ -61.0088737, 14.682009 ], [ -61.0090158, 14.6821399 ], [ -61.0091838, 14.6821928 ], [ -61.0094016, 14.6822901 ], [ -61.0095285, 14.6824331 ], [ -61.0095998, 14.6826148 ], [ -61.0096307, 14.6828133 ], [ -61.0095532, 14.6830427 ], [ -61.0094701, 14.6833357 ], [ -61.0094511, 14.6834848 ], [ -61.0094752, 14.6836025 ], [ -61.0095174, 14.6836616 ], [ -61.0096, 14.6836966 ], [ -61.0099016, 14.683709 ], [ -61.0101196, 14.6837892 ], [ -61.0102334, 14.6839957 ], [ -61.010267, 14.6841722 ], [ -61.010414, 14.6843154 ], [ -61.0106847, 14.6844107 ], [ -61.0108431, 14.6844072 ], [ -61.0109743, 14.6843618 ], [ -61.0110786, 14.6842281 ], [ -61.0112386, 14.684046 ], [ -61.0113084, 14.6838385 ], [ -61.011353, 14.6836284 ], [ -61.0114013, 14.6835677 ], [ -61.011472, 14.6835389 ], [ -61.0115372, 14.6835566 ], [ -61.0117022, 14.6836584 ], [ -61.0118793, 14.6838165 ], [ -61.0121409, 14.6840806 ], [ -61.0121614, 14.6843109 ], [ -61.012125, 14.6844403 ], [ -61.0122038, 14.6845376 ], [ -61.0122968, 14.6846437 ], [ -61.0124788, 14.6847757 ], [ -61.0126104, 14.6848271 ], [ -61.0127001, 14.6848017 ], [ -61.0127764, 14.6848234 ], [ -61.0128182, 14.6847962 ], [ -61.0129388, 14.6847374 ], [ -61.0130503, 14.6847076 ], [ -61.0133099, 14.6846413 ], [ -61.0134082, 14.6846592 ], [ -61.0134617, 14.6846818 ], [ -61.0134566, 14.6848877 ], [ -61.0136066, 14.6849531 ], [ -61.0138291, 14.6853382 ], [ -61.0139271, 14.6854027 ], [ -61.0139871, 14.6853765 ], [ -61.01408, 14.6853211 ], [ -61.0141361, 14.685338 ], [ -61.0141881, 14.6853263 ], [ -61.0142663, 14.6853354 ], [ -61.0144014, 14.685373 ], [ -61.014502, 14.685369 ], [ -61.014567, 14.6853517 ], [ -61.0146291, 14.6852972 ], [ -61.0146538, 14.6852339 ], [ -61.0147228, 14.6852041 ], [ -61.0147592, 14.6851699 ], [ -61.0148135, 14.6851242 ], [ -61.0148725, 14.6850876 ], [ -61.0148651, 14.6850034 ], [ -61.0148296, 14.6849558 ], [ -61.0148338, 14.6848615 ], [ -61.0148915, 14.6848169 ], [ -61.0149321, 14.6847713 ], [ -61.0150635, 14.6847787 ], [ -61.0152043, 14.68478 ], [ -61.0153323, 14.6848031 ], [ -61.0154256, 14.6847721 ], [ -61.0154971, 14.684697 ], [ -61.0156054, 14.6845933 ], [ -61.0158661, 14.6848108 ], [ -61.0158498, 14.6848907 ], [ -61.0158249, 14.6849685 ], [ -61.0157985, 14.6850274 ], [ -61.0159107, 14.6850699 ], [ -61.0161313, 14.685133 ], [ -61.0163356, 14.6850613 ], [ -61.0166431, 14.6849783 ], [ -61.0179592, 14.6876278 ], [ -61.0189425, 14.6889872 ], [ -61.0194579, 14.6895472 ], [ -61.020354, 14.6905509 ], [ -61.0203261, 14.6911356 ], [ -61.0207112, 14.6910802 ], [ -61.0208577, 14.6907315 ], [ -61.0214108, 14.6907386 ], [ -61.021319, 14.6906032 ], [ -61.0215571, 14.6906836 ], [ -61.0221993, 14.6908408 ], [ -61.0225749, 14.6912968 ], [ -61.0226355, 14.6912582 ], [ -61.0225891, 14.691664 ], [ -61.0234018, 14.691879 ], [ -61.0236961, 14.6918668 ], [ -61.0236738, 14.6921138 ], [ -61.024622, 14.6934631 ], [ -61.0248019, 14.693587 ], [ -61.0268446, 14.6943093 ], [ -61.0269796, 14.6941171 ], [ -61.0278749, 14.6932535 ], [ -61.0295522, 14.6932164 ], [ -61.0296508, 14.6934424 ], [ -61.029364, 14.6948521 ], [ -61.0299669, 14.6951974 ], [ -61.0304593, 14.6957987 ], [ -61.0311923, 14.6962039 ], [ -61.0321922, 14.6962981 ], [ -61.0318538, 14.6975752 ], [ -61.0328281, 14.6971625 ], [ -61.0353411, 14.6949401 ], [ -61.0360753, 14.6935508 ], [ -61.0363514, 14.6937262 ], [ -61.036445, 14.693766 ], [ -61.0365505, 14.6937841 ], [ -61.0366373, 14.6938124 ], [ -61.0367462, 14.6939073 ], [ -61.0368098, 14.6939401 ], [ -61.0368827, 14.6939334 ], [ -61.0370268, 14.6938994 ], [ -61.0371225, 14.6939295 ], [ -61.0372233, 14.6940365 ], [ -61.0373032, 14.6941075 ], [ -61.0374812, 14.694192 ], [ -61.0375817, 14.694218 ], [ -61.0377109, 14.6942177 ], [ -61.0377867, 14.6942484 ], [ -61.0378559, 14.6943301 ], [ -61.0378922, 14.6943607 ], [ -61.0379597, 14.6943718 ], [ -61.038106, 14.6943323 ], [ -61.0381911, 14.6943324 ], [ -61.0382648, 14.6943708 ], [ -61.0383435, 14.6943934 ], [ -61.0387082, 14.6944203 ], [ -61.0388186, 14.694462 ], [ -61.0393215, 14.6946974 ], [ -61.0393616, 14.6947454 ], [ -61.0398291, 14.69515 ], [ -61.0412333, 14.695578 ], [ -61.0427284, 14.6960281 ], [ -61.0445858, 14.6966868 ], [ -61.0469076, 14.700468 ], [ -61.0481475, 14.701703 ], [ -61.0499945, 14.6992259 ], [ -61.0512529, 14.7001757 ], [ -61.0523828, 14.7004691 ], [ -61.0532051, 14.7009655 ], [ -61.0537868, 14.70183 ], [ -61.054597, 14.7011965 ], [ -61.054801, 14.7017817 ], [ -61.0563688, 14.7019222 ], [ -61.0566101, 14.701934 ], [ -61.0567323, 14.7019898 ], [ -61.0576201, 14.7025827 ], [ -61.0584672, 14.7032418 ], [ -61.0587172, 14.7034045 ], [ -61.0589091, 14.7035353 ], [ -61.0591473, 14.7036685 ], [ -61.0593979, 14.7037685 ], [ -61.0598218, 14.7038308 ], [ -61.0600027, 14.7038421 ], [ -61.0602645, 14.7038091 ], [ -61.0607055, 14.7037579 ], [ -61.0609916, 14.7036996 ], [ -61.0611384, 14.7037107 ], [ -61.0612708, 14.703749 ], [ -61.0614893, 14.703837 ], [ -61.0616434, 14.7039283 ], [ -61.061781, 14.7040528 ], [ -61.0618986, 14.7041811 ], [ -61.0619898, 14.7043287 ], [ -61.0621205, 14.7045628 ], [ -61.0622298, 14.7047164 ], [ -61.0623196, 14.7047935 ], [ -61.0623433, 14.7048407 ], [ -61.0624949, 14.7049888 ], [ -61.0626527, 14.7051135 ], [ -61.0628792, 14.7052556 ], [ -61.063182, 14.7054085 ], [ -61.0634371, 14.7055526 ], [ -61.0635768, 14.7056688 ], [ -61.0638447, 14.7058081 ], [ -61.0646294, 14.7060668 ], [ -61.0647395, 14.7061313 ], [ -61.0648897, 14.7062084 ], [ -61.0650425, 14.7062709 ], [ -61.0656256, 14.7065793 ], [ -61.065951, 14.7067533 ], [ -61.0660664, 14.7067812 ], [ -61.066419, 14.7070044 ], [ -61.0670154, 14.7075111 ], [ -61.0674157, 14.7077421 ], [ -61.0677469, 14.7079178 ], [ -61.0678826, 14.7080345 ], [ -61.0679463, 14.7081212 ], [ -61.0681458, 14.708301 ], [ -61.0682655, 14.7084136 ], [ -61.0683994, 14.7087417 ], [ -61.0684539, 14.7089517 ], [ -61.0686142, 14.7092487 ], [ -61.0688424, 14.709601 ], [ -61.0690235, 14.7098238 ], [ -61.0691275, 14.7098913 ], [ -61.06935, 14.7099793 ], [ -61.0694297, 14.710068 ], [ -61.0696539, 14.7104184 ], [ -61.0697794, 14.7105683 ], [ -61.0701315, 14.7110078 ], [ -61.0702116, 14.7110496 ], [ -61.0708649, 14.7108769 ], [ -61.07122, 14.7107644 ], [ -61.0716035, 14.710609 ], [ -61.0718442, 14.7106912 ], [ -61.072127, 14.7107915 ], [ -61.0723878, 14.7113262 ], [ -61.072595, 14.7115531 ], [ -61.0727962, 14.7117741 ], [ -61.0728663, 14.7118099 ], [ -61.0729423, 14.7118595 ], [ -61.0732469, 14.7119991 ], [ -61.0734573, 14.7120909 ], [ -61.0738957, 14.7125625 ], [ -61.0741025, 14.7126113 ], [ -61.0743498, 14.7126212 ], [ -61.0746426, 14.7127195 ], [ -61.0747694, 14.7128168 ], [ -61.0748712, 14.7130318 ], [ -61.0751232, 14.7133276 ], [ -61.0753714, 14.7136998 ], [ -61.0755467, 14.7137869 ], [ -61.0758192, 14.7138871 ], [ -61.0759291, 14.7139003 ], [ -61.0759985, 14.7138702 ], [ -61.0761552, 14.7139327 ], [ -61.0762772, 14.713998 ], [ -61.076424, 14.7141032 ], [ -61.0765207, 14.7141805 ], [ -61.0767182, 14.7142433 ], [ -61.077015, 14.7144447 ], [ -61.0770957, 14.7145708 ], [ -61.0774264, 14.7148428 ], [ -61.0778389, 14.7151215 ], [ -61.07806, 14.7157107 ], [ -61.0781835, 14.7159688 ], [ -61.0783277, 14.7163707 ], [ -61.078482, 14.7166994 ], [ -61.0785928, 14.7169664 ], [ -61.0786074, 14.717092 ], [ -61.0787252, 14.7172765 ], [ -61.0789151, 14.7174831 ], [ -61.0791645, 14.7177207 ], [ -61.0793489, 14.7178446 ], [ -61.0794491, 14.7178852 ], [ -61.0796186, 14.7179081 ], [ -61.0798944, 14.7180113 ], [ -61.0800351, 14.7180951 ], [ -61.0800941, 14.7181721 ], [ -61.0801867, 14.7183625 ], [ -61.0803049, 14.7185103 ], [ -61.0803345, 14.7187186 ], [ -61.0805022, 14.7193105 ], [ -61.0805232, 14.7194208 ], [ -61.0805539, 14.7195067 ], [ -61.0806258, 14.719547 ], [ -61.0812301, 14.7198213 ], [ -61.081565, 14.7199801 ], [ -61.0818565, 14.7200712 ], [ -61.0820636, 14.7201188 ], [ -61.082132, 14.7202051 ], [ -61.0823211, 14.7205003 ], [ -61.0823108, 14.7206043 ], [ -61.0822378, 14.7206893 ], [ -61.0821962, 14.7207685 ], [ -61.0822051, 14.7208328 ], [ -61.0823749, 14.7211769 ], [ -61.0825646, 14.7214896 ], [ -61.0828011, 14.7217534 ], [ -61.0830202, 14.7220098 ], [ -61.0831802, 14.7221114 ], [ -61.0832726, 14.7221881 ], [ -61.0835273, 14.7223909 ], [ -61.0836551, 14.7224482 ], [ -61.0838403, 14.7225452 ], [ -61.084151, 14.7226726 ], [ -61.0842987, 14.7227546 ], [ -61.0844049, 14.7229684 ], [ -61.0843304, 14.723144 ], [ -61.0844117, 14.7233356 ], [ -61.0846871, 14.7237711 ], [ -61.0847681, 14.7239896 ], [ -61.0848233, 14.7242935 ], [ -61.0848316, 14.7244918 ], [ -61.0848069, 14.7247339 ], [ -61.0846818, 14.7249482 ], [ -61.0845915, 14.7251043 ], [ -61.0848858, 14.7250678 ], [ -61.0851903, 14.7247318 ], [ -61.0852865, 14.7246096 ], [ -61.0854367, 14.7244586 ], [ -61.0854719, 14.7242982 ], [ -61.0854743, 14.7241631 ], [ -61.0855088, 14.724083 ], [ -61.0856245, 14.724017 ], [ -61.0857278, 14.7239326 ], [ -61.0858509, 14.72388 ], [ -61.0858975, 14.7238354 ], [ -61.0860173, 14.7234467 ], [ -61.0860114, 14.7232616 ], [ -61.0860009, 14.7231762 ], [ -61.0860979, 14.7230955 ], [ -61.086115, 14.7230043 ], [ -61.086152, 14.7229254 ], [ -61.0862208, 14.7229224 ], [ -61.0863073, 14.7229012 ], [ -61.0862805, 14.7228206 ], [ -61.0862189, 14.7227153 ], [ -61.0861881, 14.7225117 ], [ -61.0862209, 14.7223367 ], [ -61.0863568, 14.7221137 ], [ -61.0864375, 14.7220426 ], [ -61.0864919, 14.7219651 ], [ -61.086546, 14.7216538 ], [ -61.0865726, 14.7214629 ], [ -61.0867156, 14.7212838 ], [ -61.0867488, 14.7212013 ], [ -61.086716, 14.7210975 ], [ -61.0865962, 14.7209163 ], [ -61.0864726, 14.7207387 ], [ -61.0864448, 14.7206362 ], [ -61.0864898, 14.720488 ], [ -61.0865941, 14.7202965 ], [ -61.0866839, 14.7201925 ], [ -61.0867374, 14.7200797 ], [ -61.0866311, 14.7197903 ], [ -61.0865655, 14.7195645 ], [ -61.0865757, 14.7194038 ], [ -61.0866341, 14.719302 ], [ -61.086635, 14.7191985 ], [ -61.0867829, 14.7190244 ], [ -61.0868002, 14.7189064 ], [ -61.0867913, 14.7187748 ], [ -61.086691, 14.7186583 ], [ -61.0865271, 14.7185194 ], [ -61.0864423, 14.7183397 ], [ -61.0864172, 14.7182104 ], [ -61.0863215, 14.7179941 ], [ -61.0862892, 14.7178233 ], [ -61.0861557, 14.7174922 ], [ -61.0860933, 14.7171897 ], [ -61.0859512, 14.7167015 ], [ -61.085858, 14.7164864 ], [ -61.0857441, 14.716069 ], [ -61.0856796, 14.7157202 ], [ -61.0857412, 14.7155405 ], [ -61.0858463, 14.7153941 ], [ -61.0858192, 14.7152063 ], [ -61.0857055, 14.7149022 ], [ -61.0856201, 14.7146543 ], [ -61.0855936, 14.7145372 ], [ -61.0855468, 14.7144503 ], [ -61.0854763, 14.7143633 ], [ -61.0854459, 14.7142632 ], [ -61.0853571, 14.7141102 ], [ -61.0851017, 14.713425 ], [ -61.0850693, 14.7132677 ], [ -61.0850147, 14.71321 ], [ -61.0847738, 14.7127197 ], [ -61.0846916, 14.7125315 ], [ -61.0846067, 14.7123713 ], [ -61.0845328, 14.712244 ], [ -61.0844713, 14.7116943 ], [ -61.0844289, 14.7113908 ], [ -61.0844188, 14.7111143 ], [ -61.0843739, 14.7108156 ], [ -61.0844096, 14.7104445 ], [ -61.0844395, 14.7103193 ], [ -61.0843483, 14.7100178 ], [ -61.0843515, 14.7096501 ], [ -61.0843336, 14.7094137 ], [ -61.084308, 14.7093368 ], [ -61.0841934, 14.7092762 ], [ -61.0837243, 14.7091323 ], [ -61.0836697, 14.7090843 ], [ -61.0835484, 14.7087886 ], [ -61.0835094, 14.7086739 ], [ -61.0835875, 14.7084712 ], [ -61.0835857, 14.7083822 ], [ -61.0835568, 14.7082615 ], [ -61.0835558, 14.7080885 ], [ -61.0837926, 14.7079555 ], [ -61.0838305, 14.7079405 ], [ -61.0838157, 14.707851 ], [ -61.083759, 14.7075671 ], [ -61.083748, 14.7074553 ], [ -61.0838911, 14.7073433 ], [ -61.0839846, 14.7072778 ], [ -61.084005, 14.7072152 ], [ -61.0839775, 14.7071636 ], [ -61.0839141, 14.7071515 ], [ -61.083743, 14.7072066 ], [ -61.0836461, 14.7071978 ], [ -61.0835602, 14.7071356 ], [ -61.0835328, 14.7070626 ], [ -61.0834121, 14.7069591 ], [ -61.0832885, 14.7069172 ], [ -61.0831671, 14.7068979 ], [ -61.0830289, 14.7069196 ], [ -61.082602, 14.7070822 ], [ -61.0822879, 14.7071615 ], [ -61.0819886, 14.7071681 ], [ -61.0815152, 14.707175 ], [ -61.0811953, 14.7072366 ], [ -61.0808533, 14.7073089 ], [ -61.0807128, 14.7073327 ], [ -61.0806265, 14.7073047 ], [ -61.0805734, 14.7072269 ], [ -61.080572, 14.7071245 ], [ -61.0806077, 14.7070565 ], [ -61.0807749, 14.7069145 ], [ -61.080888, 14.7068176 ], [ -61.0809471, 14.7067475 ], [ -61.0809598, 14.7066338 ], [ -61.0809536, 14.7065382 ], [ -61.0809051, 14.7064672 ], [ -61.0807218, 14.7063041 ], [ -61.0805385, 14.7061456 ], [ -61.0803005, 14.7058204 ], [ -61.0802205, 14.7056081 ], [ -61.0801479, 14.7053594 ], [ -61.0797553, 14.7048031 ], [ -61.0796019, 14.7046903 ], [ -61.0793854, 14.7045793 ], [ -61.0791218, 14.7045088 ], [ -61.0790826, 14.7044493 ], [ -61.0788633, 14.7041266 ], [ -61.0787031, 14.7040023 ], [ -61.0785798, 14.7039262 ], [ -61.0784166, 14.703877 ], [ -61.0782982, 14.7038766 ], [ -61.0780769, 14.7039516 ], [ -61.0778747, 14.7040728 ], [ -61.0776939, 14.7041646 ], [ -61.0775629, 14.7041704 ], [ -61.0774485, 14.7041467 ], [ -61.0772484, 14.7040403 ], [ -61.0770422, 14.7038679 ], [ -61.0769854, 14.7037751 ], [ -61.0769733, 14.7036863 ], [ -61.0770888, 14.7034067 ], [ -61.0771241, 14.7032768 ], [ -61.0771441, 14.7031359 ], [ -61.0771069, 14.7029201 ], [ -61.0770099, 14.7027397 ], [ -61.0769057, 14.7025798 ], [ -61.0768729, 14.7022729 ], [ -61.0768351, 14.7021947 ], [ -61.076718, 14.7021239 ], [ -61.0759394, 14.7018628 ], [ -61.0757965, 14.7018957 ], [ -61.0756984, 14.7019682 ], [ -61.0751926, 14.7025029 ], [ -61.0748727, 14.7027142 ], [ -61.0741184, 14.7031403 ], [ -61.0739495, 14.7032049 ], [ -61.073795, 14.7032264 ], [ -61.0737191, 14.703201 ], [ -61.0736819, 14.7031394 ], [ -61.0736291, 14.702945 ], [ -61.0735756, 14.7029082 ], [ -61.0737668, 14.7027049 ], [ -61.0740823, 14.7024549 ], [ -61.074346, 14.7022523 ], [ -61.0743986, 14.7021253 ], [ -61.0746789, 14.7018864 ], [ -61.0747638, 14.7018074 ], [ -61.07479, 14.7017485 ], [ -61.0748078, 14.7015916 ], [ -61.0747975, 14.7014254 ], [ -61.0748101, 14.7013299 ], [ -61.0748432, 14.7012778 ], [ -61.0751503, 14.7011871 ], [ -61.0753119, 14.7011588 ], [ -61.0753774, 14.7011571 ], [ -61.0754899, 14.7011239 ], [ -61.0755553, 14.7011404 ], [ -61.0756529, 14.7012049 ], [ -61.0756856, 14.7012052 ], [ -61.0757186, 14.7011827 ], [ -61.0757589, 14.7011125 ], [ -61.0757852, 14.7010467 ], [ -61.0758468, 14.700963 ], [ -61.0759738, 14.7008753 ], [ -61.0760073, 14.7007868 ], [ -61.0760175, 14.7006868 ], [ -61.0760879, 14.7006646 ], [ -61.0762142, 14.7006543 ], [ -61.0763219, 14.7006369 ], [ -61.0765121, 14.7005475 ], [ -61.0767778, 14.7003767 ], [ -61.0770034, 14.7002489 ], [ -61.0771583, 14.7001819 ], [ -61.0772363, 14.7000847 ], [ -61.0774063, 14.6998995 ], [ -61.0775642, 14.6997642 ], [ -61.0778954, 14.6995826 ], [ -61.0782196, 14.6994169 ], [ -61.0784309, 14.699314 ], [ -61.0785764, 14.6992469 ], [ -61.0787195, 14.6992026 ], [ -61.0788458, 14.6991945 ], [ -61.0789531, 14.6992227 ], [ -61.0791626, 14.6993337 ], [ -61.0792863, 14.6993552 ], [ -61.0793897, 14.6993015 ], [ -61.079695, 14.6991447 ], [ -61.0798524, 14.6990572 ], [ -61.0799936, 14.6989537 ], [ -61.0800832, 14.6988657 ], [ -61.0802344, 14.6986894 ], [ -61.0803431, 14.6985583 ], [ -61.0804705, 14.6984365 ], [ -61.0806676, 14.6983517 ], [ -61.0807963, 14.6983391 ], [ -61.0809388, 14.6983539 ], [ -61.0811, 14.6983735 ], [ -61.081203, 14.6983516 ], [ -61.0812526, 14.6982996 ], [ -61.0812743, 14.6982224 ], [ -61.0812494, 14.6981334 ], [ -61.0812482, 14.698006 ], [ -61.0813486, 14.6980159 ], [ -61.0813886, 14.6979844 ], [ -61.0814038, 14.6978593 ], [ -61.0813934, 14.6977068 ], [ -61.0813666, 14.6975632 ], [ -61.0815276, 14.6973346 ], [ -61.0815847, 14.697219 ], [ -61.0815904, 14.6971053 ], [ -61.0815428, 14.6969342 ], [ -61.0815576, 14.6968478 ], [ -61.0816284, 14.6967711 ], [ -61.0816854, 14.6966668 ], [ -61.0816632, 14.6965369 ], [ -61.0815799, 14.6964361 ], [ -61.0815974, 14.6963042 ], [ -61.0816782, 14.696157 ], [ -61.0818149, 14.6960352 ], [ -61.0820408, 14.6958709 ], [ -61.0821394, 14.6958194 ], [ -61.0823009, 14.6958094 ], [ -61.0823834, 14.6957327 ], [ -61.0823983, 14.6956327 ], [ -61.082432, 14.6955146 ], [ -61.0825194, 14.6954152 ], [ -61.0826609, 14.6952775 ], [ -61.0827391, 14.6951621 ], [ -61.0827354, 14.6950483 ], [ -61.082664, 14.6949293 ], [ -61.0826972, 14.6948659 ], [ -61.0828411, 14.6947282 ], [ -61.0839522, 14.6936041 ], [ -61.0844945, 14.6930805 ], [ -61.0846575, 14.692893 ], [ -61.0847682, 14.6927938 ], [ -61.0848366, 14.6927306 ], [ -61.0848604, 14.6926762 ], [ -61.0848496, 14.6925828 ], [ -61.0848295, 14.6924756 ], [ -61.0848356, 14.6920387 ], [ -61.0848074, 14.6915241 ], [ -61.0847723, 14.6912621 ], [ -61.084705, 14.6912047 ], [ -61.0846188, 14.691163 ], [ -61.0845493, 14.6910918 ], [ -61.0845174, 14.690996 ], [ -61.0843688, 14.6908832 ], [ -61.0842596, 14.6908027 ], [ -61.0841201, 14.6907037 ], [ -61.084034, 14.6906665 ], [ -61.0837401, 14.6905844 ], [ -61.0837346, 14.6904114 ], [ -61.0837954, 14.6901388 ], [ -61.0837264, 14.6900131 ], [ -61.0837504, 14.6899404 ], [ -61.0837089, 14.6898764 ], [ -61.0837782, 14.6896994 ], [ -61.0837857, 14.6896403 ], [ -61.0837451, 14.6894784 ], [ -61.0837766, 14.6893489 ], [ -61.0837849, 14.6892033 ], [ -61.0838725, 14.6890743 ], [ -61.0838829, 14.6889606 ], [ -61.0838533, 14.6888648 ], [ -61.0838472, 14.68876 ], [ -61.0837712, 14.6886342 ], [ -61.0836948, 14.6885403 ], [ -61.0835713, 14.6885006 ], [ -61.083497, 14.6884385 ], [ -61.0833658, 14.6882007 ], [ -61.0832338, 14.6880585 ], [ -61.0832603, 14.6879609 ], [ -61.0833456, 14.687841 ], [ -61.0833909, 14.6877321 ], [ -61.0833893, 14.6876524 ], [ -61.0833478, 14.6875815 ], [ -61.0833536, 14.6874541 ], [ -61.0833919, 14.6873589 ], [ -61.0834016, 14.6873089 ], [ -61.0833886, 14.687195 ], [ -61.0833779, 14.6870834 ], [ -61.0833855, 14.6870129 ], [ -61.0834566, 14.6869019 ], [ -61.0835911, 14.6867642 ], [ -61.083655, 14.6866828 ], [ -61.0836768, 14.6865965 ], [ -61.0836683, 14.6864963 ], [ -61.083606, 14.6864025 ], [ -61.0835037, 14.6863288 ], [ -61.0833193, 14.6862931 ], [ -61.0831273, 14.686328 ], [ -61.0829391, 14.6864607 ], [ -61.0828544, 14.6865237 ], [ -61.082784, 14.6865504 ], [ -61.0826345, 14.6865333 ], [ -61.082546, 14.6864961 ], [ -61.0824741, 14.6864363 ], [ -61.0824633, 14.6863361 ], [ -61.0824764, 14.6861678 ], [ -61.082494, 14.6860291 ], [ -61.0824585, 14.6858081 ], [ -61.0824365, 14.6856531 ], [ -61.082386, 14.6855412 ], [ -61.0822956, 14.6854585 ], [ -61.082205, 14.685394 ], [ -61.0820787, 14.6853907 ], [ -61.0820059, 14.6854311 ], [ -61.0819236, 14.6854873 ], [ -61.0817387, 14.685504 ], [ -61.0816246, 14.6854552 ], [ -61.0815415, 14.6853339 ], [ -61.0815214, 14.6852245 ], [ -61.081556, 14.6850108 ], [ -61.0815806, 14.6848745 ], [ -61.0815742, 14.6848016 ], [ -61.0815467, 14.6847422 ], [ -61.0814654, 14.6846801 ], [ -61.0813954, 14.684659 ], [ -61.0812406, 14.6847215 ], [ -61.0811442, 14.6847753 ], [ -61.0810223, 14.6848175 ], [ -61.0809499, 14.6848124 ], [ -61.0808777, 14.6847799 ], [ -61.0808037, 14.6846814 ], [ -61.0807153, 14.6846352 ], [ -61.0805357, 14.6845859 ], [ -61.080433, 14.6845668 ], [ -61.0803565, 14.6844934 ], [ -61.0803619, 14.6844092 ], [ -61.0803907, 14.6843184 ], [ -61.0804848, 14.6842555 ], [ -61.0805394, 14.684158 ], [ -61.080543, 14.6840215 ], [ -61.0805439, 14.6839168 ], [ -61.0805052, 14.6837913 ], [ -61.0804995, 14.6836479 ], [ -61.0805799, 14.6835348 ], [ -61.080689, 14.6833673 ], [ -61.0807484, 14.6832494 ], [ -61.0807544, 14.6831061 ], [ -61.080711, 14.6829828 ], [ -61.0806349, 14.6828638 ], [ -61.0804997, 14.6828172 ], [ -61.0803548, 14.6828137 ], [ -61.0802288, 14.6827831 ], [ -61.0801431, 14.6826914 ], [ -61.0801162, 14.6825591 ], [ -61.0801214, 14.6825 ], [ -61.0802245, 14.6824713 ], [ -61.0804235, 14.6824411 ], [ -61.080695, 14.6824069 ], [ -61.0806888, 14.6823204 ], [ -61.0806291, 14.6821947 ], [ -61.0806084, 14.6821535 ], [ -61.0806277, 14.6820854 ], [ -61.0807098, 14.6820497 ], [ -61.0808222, 14.682037 ], [ -61.0810747, 14.6820368 ], [ -61.0811331, 14.6820464 ], [ -61.0811685, 14.682008 ], [ -61.0812026, 14.6818467 ], [ -61.0813358, 14.6815838 ], [ -61.081353, 14.6814929 ], [ -61.0813216, 14.6813447 ], [ -61.0812267, 14.6812324 ], [ -61.081172, 14.6810703 ], [ -61.0811288, 14.6809311 ], [ -61.0810782, 14.6808374 ], [ -61.0811141, 14.6807421 ], [ -61.0812059, 14.6806701 ], [ -61.0813561, 14.6805985 ], [ -61.0815832, 14.6805708 ], [ -61.0818731, 14.6805663 ], [ -61.0820483, 14.6805792 ], [ -61.0821821, 14.6805188 ], [ -61.08226, 14.6804375 ], [ -61.0822748, 14.6803512 ], [ -61.0822878, 14.6801965 ], [ -61.0824116, 14.6799404 ], [ -61.0824383, 14.6798336 ], [ -61.0825356, 14.6796683 ], [ -61.0827148, 14.67949 ], [ -61.0829151, 14.6793164 ], [ -61.0830789, 14.6793018 ], [ -61.0831821, 14.679264 ], [ -61.083248, 14.6792122 ], [ -61.0833575, 14.6789878 ], [ -61.083455, 14.6787974 ], [ -61.0834536, 14.6786927 ], [ -61.0836228, 14.678594 ], [ -61.0837538, 14.6785814 ], [ -61.0841427, 14.678225 ], [ -61.0844134, 14.6777493 ], [ -61.0851626, 14.6761251 ], [ -61.0849054, 14.6734678 ], [ -61.0821142, 14.6735893 ], [ -61.0818102, 14.6734817 ], [ -61.0816965, 14.6734808 ], [ -61.0815749, 14.6735191 ], [ -61.0814971, 14.6735243 ], [ -61.0814106, 14.6734886 ], [ -61.0812663, 14.6733986 ], [ -61.0811241, 14.6734032 ], [ -61.0810546, 14.6734755 ], [ -61.0809388, 14.6735459 ], [ -61.0808384, 14.6735611 ], [ -61.0807174, 14.6735397 ], [ -61.0806459, 14.6735071 ], [ -61.0805747, 14.673438 ], [ -61.0804489, 14.6732782 ], [ -61.0803642, 14.6732047 ], [ -61.0802735, 14.6731427 ], [ -61.0801647, 14.6730981 ], [ -61.0800271, 14.6730839 ], [ -61.0798025, 14.673101 ], [ -61.0797024, 14.673087 ], [ -61.0795352, 14.6730434 ], [ -61.0793457, 14.672985 ], [ -61.0790446, 14.6728558 ], [ -61.0790116, 14.6726967 ], [ -61.0789483, 14.6725797 ], [ -61.0788516, 14.6725075 ], [ -61.0786893, 14.6724246 ], [ -61.0785087, 14.6723736 ], [ -61.0783771, 14.6723623 ], [ -61.0781343, 14.672404 ], [ -61.0779486, 14.6724257 ], [ -61.0777662, 14.6724169 ], [ -61.0775988, 14.6723864 ], [ -61.077305, 14.6722849 ], [ -61.0770889, 14.6721826 ], [ -61.0769565, 14.6720985 ], [ -61.0768892, 14.6719203 ], [ -61.0768444, 14.6717407 ], [ -61.0768, 14.6716821 ], [ -61.0766584, 14.6716299 ], [ -61.0765573, 14.6715519 ], [ -61.076482, 14.6714391 ], [ -61.0764795, 14.6712104 ], [ -61.076473, 14.6710967 ], [ -61.076516, 14.6709718 ], [ -61.0765036, 14.6708494 ], [ -61.0764357, 14.6707439 ], [ -61.0764178, 14.6705617 ], [ -61.0763832, 14.6704172 ], [ -61.076342, 14.6703353 ], [ -61.0762857, 14.670278 ], [ -61.0762291, 14.6702499 ], [ -61.0761855, 14.6702656 ], [ -61.0761761, 14.6703135 ], [ -61.0761741, 14.6703718 ], [ -61.0761513, 14.6704182 ], [ -61.0761, 14.6704629 ], [ -61.0757418, 14.6705328 ], [ -61.0755976, 14.6705957 ], [ -61.0755062, 14.670608 ], [ -61.0753405, 14.6705732 ], [ -61.0751048, 14.6704896 ], [ -61.0750167, 14.6704729 ], [ -61.0749418, 14.6704737 ], [ -61.0748533, 14.6705036 ], [ -61.0747516, 14.6704969 ], [ -61.0746682, 14.6704583 ], [ -61.0746568, 14.6703854 ], [ -61.0746905, 14.6703056 ], [ -61.0748583, 14.6701045 ], [ -61.0748888, 14.6700334 ], [ -61.0748759, 14.6699736 ], [ -61.074797, 14.6699307 ], [ -61.0746774, 14.6699122 ], [ -61.0743646, 14.6699314 ], [ -61.0739919, 14.6699473 ], [ -61.0739243, 14.6688224 ], [ -61.0741614, 14.6684517 ], [ -61.0739293, 14.6682388 ], [ -61.0735903, 14.6679901 ], [ -61.0734538, 14.6678596 ], [ -61.0734156, 14.6677113 ], [ -61.0734045, 14.6674724 ], [ -61.0733184, 14.6673353 ], [ -61.0731451, 14.6671614 ], [ -61.0729128, 14.6670394 ], [ -61.0726978, 14.6669887 ], [ -61.0724241, 14.6669422 ], [ -61.0722087, 14.6667053 ], [ -61.07193, 14.6664285 ], [ -61.0715881, 14.6663744 ], [ -61.0713885, 14.6663448 ], [ -61.0712658, 14.6662832 ], [ -61.0708787, 14.6659199 ], [ -61.0708265, 14.665849 ], [ -61.0707415, 14.6657334 ], [ -61.0706181, 14.6656159 ], [ -61.0705111, 14.6655346 ], [ -61.0703681, 14.6654588 ], [ -61.0702162, 14.6654436 ], [ -61.0700775, 14.6654273 ], [ -61.0699952, 14.6653963 ], [ -61.0699121, 14.665314 ], [ -61.0698285, 14.665156 ], [ -61.0697241, 14.6650584 ], [ -61.0695656, 14.6649791 ], [ -61.069329, 14.6649351 ], [ -61.0691153, 14.6648634 ], [ -61.0688232, 14.6647375 ], [ -61.0686606, 14.6647186 ], [ -61.0685579, 14.6646852 ], [ -61.0684376, 14.6646224 ], [ -61.0683336, 14.6646029 ], [ -61.0682415, 14.6645998 ], [ -61.068124, 14.6646256 ], [ -61.0680476, 14.6646005 ], [ -61.0679094, 14.6645283 ], [ -61.0678402, 14.6644951 ], [ -61.0677444, 14.6645071 ], [ -61.0676951, 14.66453 ], [ -61.0676635, 14.6645798 ], [ -61.0676223, 14.6646471 ], [ -61.0675258, 14.6647232 ], [ -61.0674623, 14.6647378 ], [ -61.0674145, 14.6647292 ], [ -61.0673933, 14.6646894 ], [ -61.0673904, 14.6646055 ], [ -61.067262, 14.6645089 ], [ -61.0670012, 14.6643564 ], [ -61.0668693, 14.6642493 ], [ -61.0667685, 14.6640107 ], [ -61.0665989, 14.6639685 ], [ -61.0663121, 14.6639148 ], [ -61.0661641, 14.6638612 ], [ -61.0660427, 14.6637902 ], [ -61.0660004, 14.6637581 ], [ -61.0658346, 14.6636324 ], [ -61.0655418, 14.6634458 ], [ -61.0649711, 14.6631416 ], [ -61.0648546, 14.6630497 ], [ -61.0646613, 14.6628488 ], [ -61.0645424, 14.6627604 ], [ -61.0642632, 14.6626567 ], [ -61.0638404, 14.6625553 ], [ -61.063618, 14.6625267 ], [ -61.0634195, 14.6625133 ], [ -61.0632812, 14.6624423 ], [ -61.0630952, 14.6622658 ], [ -61.0628694, 14.6620234 ], [ -61.0627901, 14.661911 ], [ -61.0627726, 14.6618506 ], [ -61.0627605, 14.6617786 ], [ -61.062819, 14.6614974 ], [ -61.0628666, 14.6612566 ], [ -61.062902, 14.6609666 ], [ -61.0629103, 14.6607485 ], [ -61.0628924, 14.6605754 ], [ -61.0627401, 14.660205 ], [ -61.0626421, 14.6600281 ], [ -61.0625278, 14.6598893 ], [ -61.0623934, 14.6597038 ], [ -61.0622192, 14.659397 ], [ -61.0621342, 14.6592669 ], [ -61.0619609, 14.6591595 ], [ -61.0618668, 14.6591112 ], [ -61.0617285, 14.6590229 ], [ -61.0615624, 14.6588555 ], [ -61.0613063, 14.6585751 ], [ -61.061137, 14.6584324 ], [ -61.0609521, 14.6583333 ], [ -61.0607568, 14.6582559 ], [ -61.0606465, 14.6581978 ], [ -61.0605445, 14.6581189 ], [ -61.0605152, 14.6580603 ], [ -61.0604925, 14.6579919 ], [ -61.0604802, 14.6578544 ], [ -61.0604546, 14.6576307 ], [ -61.0604312, 14.6574742 ], [ -61.0603518, 14.6573103 ], [ -61.0602037, 14.6570164 ], [ -61.0601436, 14.6568347 ], [ -61.0600282, 14.6565021 ], [ -61.059961, 14.6563761 ], [ -61.059875, 14.6562837 ], [ -61.0597593, 14.6561892 ], [ -61.0594041, 14.6559629 ], [ -61.0591762, 14.6557884 ], [ -61.0587811, 14.6554745 ], [ -61.0587213, 14.6554216 ], [ -61.0586712, 14.6553559 ], [ -61.0586413, 14.6552738 ], [ -61.0585659, 14.6550285 ], [ -61.0585198, 14.6548704 ], [ -61.0584462, 14.6547598 ], [ -61.0583443, 14.6546147 ], [ -61.0581711, 14.6544909 ], [ -61.0580511, 14.6544342 ], [ -61.0579373, 14.6543756 ], [ -61.0578505, 14.6543151 ], [ -61.0578072, 14.6542723 ], [ -61.0577768, 14.654146 ], [ -61.0578, 14.654015 ], [ -61.0578477, 14.6538697 ], [ -61.0578935, 14.6538328 ], [ -61.0579697, 14.6537991 ], [ -61.058032, 14.6537948 ], [ -61.0581375, 14.6538052 ], [ -61.0582188, 14.6537941 ], [ -61.0583016, 14.6537687 ], [ -61.0583498, 14.6537282 ], [ -61.0583735, 14.6536791 ], [ -61.0583483, 14.653531 ], [ -61.0583528, 14.6534513 ], [ -61.0583292, 14.6533797 ], [ -61.0582393, 14.6532115 ], [ -61.0582404, 14.6531208 ], [ -61.0583053, 14.6530234 ], [ -61.0584161, 14.6528951 ], [ -61.0584598, 14.6528244 ], [ -61.0584945, 14.6527003 ], [ -61.0585258, 14.6526318 ], [ -61.0586239, 14.6524899 ], [ -61.0586464, 14.6523943 ], [ -61.0586327, 14.6522259 ], [ -61.0586231, 14.6520356 ], [ -61.0586232, 14.6518607 ], [ -61.0586559, 14.6517772 ], [ -61.0587391, 14.6517093 ], [ -61.0588132, 14.6516719 ], [ -61.0589398, 14.651633 ], [ -61.0591853, 14.6516032 ], [ -61.0592593, 14.6515734 ], [ -61.0593332, 14.6515257 ], [ -61.0593741, 14.6514682 ], [ -61.0593909, 14.6513729 ], [ -61.0593505, 14.6513065 ], [ -61.0592901, 14.6512406 ], [ -61.0591937, 14.651159 ], [ -61.0589019, 14.650943 ], [ -61.0587547, 14.6508384 ], [ -61.0586841, 14.6507929 ], [ -61.0586376, 14.6507434 ], [ -61.0586357, 14.6506867 ] ] ] } }
]
}
